STARLINK-30917          
1 58419U 23180T   26068.01539324 -.00000752  00000+0 -17790-4 0  9993
2 58419  43.0035 307.5638 0001823 256.5365 103.5284 15.27580357128795
TRANSPORTER-12 OBJECT BT
1 62674U 25009BT  26068.71416991  .00013824  00000+0  51029-3 0  9998
2 62674  97.4094 151.5992 0003682 313.5044  46.5889 15.27872239121360
